{
  "norad_id": 53274,
  "name": "STARLINK-4050",
  "history": [
    {
      "epoch": "2026-03-28T17:13:34.857120Z",
      "apogee_km": 540.6105844858739,
      "perigee_km": 538.8631295495907,
      "latitude_deg": 3.248520302366459e-05,
      "longitude_deg": 14.170389275580302,
      "height_km": 540.5818188025924,
      "semi_major_axis_km": 6917.873857017732,
      "eccentricity": 0.0001263,
      "inclination_deg": 53.2169,
      "raan_deg": 98.6998,
      "arg_perigee_deg": 86.6652,
      "mean_anomaly_deg": 273.4485,
      "mean_motion_rev_day": 15.08842137
    },
    {
      "epoch": "2026-03-29T04:21:17.462304Z",
      "apogee_km": 540.734329629855,
      "perigee_km": 538.7945500661217,
      "latitude_deg": 1.6643256383602394e-05,
      "longitude_deg": -155.2949754359926,
      "height_km": 540.6597825974217,
      "semi_major_axis_km": 6917.9014398479885,
      "eccentricity": 0.0001402,
      "inclination_deg": 53.218,
      "raan_deg": 96.619,
      "arg_perigee_deg": 89.9785,
      "mean_anomaly_deg": 270.1368,
      "mean_motion_rev_day": 15.08833113
    },
    {
      "epoch": "2026-03-30T01:01:18.164640Z",
      "apogee_km": 540.7211190569806,
      "perigee_km": 538.7688927549143,
      "latitude_deg": -6.592242725432843e-05,
      "longitude_deg": -110.0128206127828,
      "height_km": 540.6348393793259,
      "semi_major_axis_km": 6917.882005905947,
      "eccentricity": 0.0001411,
      "inclination_deg": 53.2176,
      "raan_deg": 92.7529,
      "arg_perigee_deg": 89.6576,
      "mean_anomaly_deg": 270.4577,
      "mean_motion_rev_day": 15.08839471
    }
  ]
}